[{"OBJECT_NAME":"STARLINK-5035","OBJECT_ID":"2022-119M","EPOCH":"2026-03-09T22:44:58.852896","MEAN_MOTION":15.08839439,"ECCENTRICITY":0.00011234,"INCLINATION":53.2187,"RA_OF_ASC_NODE":322.9593,"ARG_OF_PERICENTER":100.2696,"MEAN_ANOMALY":259.8422,"EPHEMERIS_TYPE":0,"CLASSIFICATION_TYPE":"U","NORAD_CAT_ID":53897,"ELEMENT_SET_NO":999,"REV_AT_EPOCH":19172,"BSTAR":5.4099308e-5,"MEAN_MOTION_DOT":5.73e-6,"MEAN_MOTION_DDOT":0},{"OBJECT_NAME":"LEMUR-2-STELLA","OBJECT_ID":"2024-149BT","EPOCH":"2026-03-09T17:26:15.951264","MEAN_MOTION":15.09464064,"ECCENTRICITY":0.0001299,"INCLINATION":97.6764,"RA_OF_ASC_NODE":150.9122,"ARG_OF_PERICENTER":95.1117,"MEAN_ANOMALY":265.026,"EPHEMERIS_TYPE":0,"CLASSIFICATION_TYPE":"U","NORAD_CAT_ID":60533,"ELEMENT_SET_NO":999,"REV_AT_EPOCH":8548,"BSTAR":0.00085776432,"MEAN_MOTION_DOT":0.00013685,"MEAN_MOTION_DDOT":0}]
